[{"OBJECT_NAME":"STARLINK-5569","OBJECT_ID":"2023-013BA","EPOCH":"2026-03-09T00:36:29.578176","MEAN_MOTION":15.02537671,"ECCENTRICITY":0.00013622,"INCLINATION":43.0042,"RA_OF_ASC_NODE":316.5729,"ARG_OF_PERICENTER":264.2114,"MEAN_ANOMALY":95.8573,"EPHEMERIS_TYPE":0,"CLASSIFICATION_TYPE":"U","NORAD_CAT_ID":55379,"ELEMENT_SET_NO":999,"REV_AT_EPOCH":17146,"BSTAR":-3.791612e-6,"MEAN_MOTION_DOT":-2.55e-6,"MEAN_MOTION_DDOT":0},{"OBJECT_NAME":"SL-8 DEB","OBJECT_ID":"1976-098E","EPOCH":"2026-03-09T08:07:12.416160","MEAN_MOTION":15.06605169,"ECCENTRICITY":0.00102283,"INCLINATION":74.028,"RA_OF_ASC_NODE":26.283,"ARG_OF_PERICENTER":218.296,"MEAN_ANOMALY":294.2383,"EPHEMERIS_TYPE":0,"CLASSIFICATION_TYPE":"U","NORAD_CAT_ID":18504,"ELEMENT_SET_NO":999,"REV_AT_EPOCH":18055,"BSTAR":0.0011587434,"MEAN_MOTION_DOT":0.00017191,"MEAN_MOTION_DDOT":0}]
